0 CALSPHERE 1
1 00900U 64063C   23048.47265094  .00001303  00000-0  13734-2 0  9999
2 00900  90.1812  45.5022 0027281   9.4045 156.7869 13.74109481904308
0 OPS 5798 DEB
1 00901U 64063D   23048.45794069  .00000186  00000-0  25760-3 0  9998
2 00901  90.1962  49.1257 0021303  66.0726  98.9235 13.54780258881829
0 CALSPHERE 2
1 00902U 64063E   23048.52636230  .00000094  00000-0  12723-3 0  9995
2 00902  90.1941  48.7572 0019300 151.1053 336.6471 13.52736881691908
0 OPS 5798 DEB
1 00903U 64063F   23048.42108944  .00001501  00000-0  14943-2 0  9990
2 00903  90.1837  44.3723 0021730 193.2380 336.5631 13.77617217906794
0 SCOUT X-4 R/B
1 00907U 64064B   23048.40136560  .00000220  00000-0  19272-3 0  9996
2 00907  79.6899  54.4282 0121467 174.8975 185.3445 13.80439395934857
0 EXPLORER 25 (INJUN-4)
1 00932U 64076B   23048.50357477  .00002186  00000-0  77585-3 0  9994
2 00932  81.3372 232.1620 1130047 140.2628 228.7061 12.64617313665305
0 SCOUT X-4 R/B
1   933U 64076C   23048.68500501  .00002910  00000-0  10011-2 0  9997
2   933  81.3399  26.5030 1066604 292.5893  56.5845 12.78354660680578
0 THOR ABLESTAR R/B
1 00953U 64083A   23048.61731359  .00000076  00000-0  91069-4 0  9992
2 00953  90.0096 190.3395 0033247  43.2809 328.1170 13.58686131883551
0 THOR ABLESTAR DEB
1 00956U 64083B   23048.62573282  .00000514  00000-0  60691-3 0  9998
2 00956  89.9532 176.3058 0025427  39.0542 333.6082 13.66490273890093
0 OPS 6582 (TRANSIT 5E-5)
1 00959U 64083C   23048.62805130  .00000342  00000-0  43069-3 0  9990
2 00959  89.9955 187.0328 0040402 291.5922  78.8898 13.61832286884726
0 OPS 6582 (TRANSIT 5B-5)
1 00965U 64083D   23048.40137902  .00000134  00000-0  17564-3 0  9998
2 00965  90.0327 196.2272 0039713 231.2781 182.0988 13.56806583878733
0 THOR ABLESTAR DEB
1 00967U 64083F   23048.61006223  .00000543  00000-0  64361-3 0  9995
2 00967  89.9641 179.1576 0024393  50.0790 322.5244 13.66378661889980
0 SCOUT X-4 DEB
1 00976U 64064C   23048.50763744  .00001187  00000-0  68064-3 0  9999
2 00976  79.3170 312.7923 0119428   5.5947 354.6515 14.05648991972096
0 SCOUT X-4 DEB
1 00977U 64064D   23048.55993842  .00000761  00000-0  70610-3 0  9996
2 00977  80.0486 346.5681 0129646  59.0867 302.2952 13.77882177922105
0 TIROS 9
1   978U 65004A   23048.71455727 -.00000089  00000-0 -10279-3 0  9995
2   978  96.3928  53.7531 1159095 142.6938 226.0650 12.10935824564898
0 DELTA 1 R/B
1 00979U 65004B   23048.15231345  .00000165  00000-0  21797-3 0  9992
2 00979  96.4240 114.0135 1142237  28.8100 337.1432 12.14823943567868
0 TITAN 3A DEB (TRUSS)
1 01000U 65008B   23048.48505655  .00000011  00000-0  28889-3 0  9995
2 01000  32.1480 339.2815 0009848 291.6086  68.3362  9.88889344 97019
0 TITAN 3A TRANSTAGE R/B
1 01001U 65008A   23048.53622833  .00000002  00000-0 -81972-3 0  9993
2 01001  32.1444 123.5659 0016670 167.2931 192.7989  9.90724365100913
0 LES 1
1 01002U 65008C   23048.29669365  .00000001  00000-0 -10389-2 0  9990
2 01002  32.1473  45.0882 0014847 195.2698 164.7352  9.88353670 95894
0 THOR ABLESTAR DEB
1 01099U 64083G   23048.60319512  .00000346  00000-0  43349-3 0  9993
2 01099  89.8822 157.2838 0039034 271.8733 152.4249 13.62161124816887
0 SECOR 3
1 01208U 65016E   23048.55365363  .00000136  00000-0  13760-3 0  9992
2 01208  70.0771 252.5288 0022808 246.8076 143.8104 13.95698628949572
0 GGSE 2
1 01244U 65016B   23048.32103326  .00000143  00000-0  14297-3 0  9990
2 01244  70.0768 255.5955 0023633 249.8148 110.0416 13.95760050948437
0 THOR AGENA D R/B
1 01245U 65016J   23048.59941950  .00000224  00000-0  19730-3 0  9990
2 01245  70.0782 180.1314 0023159 217.0238 142.9272 13.97158445950524
0 OPS 4988 (GREB 6)
1  1271U 65016A   23048.80038319  .00000175  00000-0  16492-3 0  9996
2  1271  70.0780 228.4434 0023126 233.3203 137.9995 13.96246297949691
0 PORCUPINE 1
1 01272U 65016H   23048.12014755  .00000077  00000-0  97293-4 0  9990
2 01272  70.0810 312.5778 0025059 276.5592  83.2661 13.94287639946883
0 SOLRAD 7B
1 01291U 65016D   23048.37971323  .00000090  00000-0  10588-3 0  9997
2 01291  70.0795 300.5075 0023887 275.8402  83.9981 13.94676158947209
0 GGSE 3
1 01292U 65016C   23048.25052419  .00000349  00000-0  26900-3 0  9993
2 01292  70.0775  44.0970 0017320 127.4487 232.8200 14.00809941954227
0 OSCAR 3
1 01293U 65016F   23048.58407194  .00000657  00000-0  42610-3 0  9992
2 01293  70.0750 159.5438 0018646 328.4644  31.5349 14.06825652961074
0 DELTA 1 DEB
1 01312U 65004C   23047.78106659  .00000328  00000-0  35375-3 0  9999
2 01312  96.3338 246.7064 1118729 309.0870  41.5747 12.27555600577297
0 DELTA 1 DEB
1 01313U 65004D   23046.43199031 -.00000203  00000-0 -28704-3 0  9999
2 01313  96.4032 215.6545 1175945  27.5169 338.3417 12.00468968540309
0 OPS 4682 (SNAPSHOT)
1 01314U 65027A   23048.60314954  .00000036  00000-0  10942-3 0  9996
2 01314  90.2623 339.3329 0029195 217.7633 316.2397 12.91770916474087
0 SECOR 4 (EGRS 4)
1 01315U 65027B   23048.57108814  .00000002  00000-0 -21983-4 0  9991
2 01315  90.2544 348.4824 0032345 132.2657  41.2236 12.92624680729873
0 OPS 4682 DEB
1 01316U 65027C   23048.55214521  .00000784  00000-0  19324-2 0  9993
2 01316  90.2462 358.5118 0030751 287.1319  72.6447 13.19755788758491
0 INTELSAT 1-F1
1 01317U 65028A   23048.18476438 -.00000158  00000-0  00000-0 0  9996
2 01317   4.1815  74.4012 0003550  87.8204 318.2782  1.00180976114989
0 DELTA 1 R/B(2)
1 01318U 65028B   23047.87478028 -.00000087  00000-0  00000-0 0  9990
2 01318  17.1729 243.7079 6964897 246.9250  25.6222  2.11825527 81541
0 EXPLORER 27
1 01328U 65032A   23048.62495419  .00000080  00000-0  25541-3 0  9995
2 01328  41.1827 177.8553 0254196 104.0233 258.8917 13.38713935825418
0 SL-8 DEB
1 01335U 65020E   23048.34460854  .00004365  00000-0  13599-2 0  9993
2 01335  56.0779 188.1382 0544775 217.9657 138.1715 13.80956223841624
0 SCOUT X-4 R/B
1 01358U 65032B   23048.49482435  .00000000  00000-0  13464-3 0  9990
2 01358  41.1881 222.5968 0250774  30.8468 330.6757 13.38103442824813
0 TITAN 3A TRANSTAGE R/B
1 01359U 65034A   23048.36975656 -.00000005  00000-0 -34430-2 0  9993
2 01359  32.1199 162.5217 0498930 278.2205  76.2001  9.17128755937031
0 LES 2
1 01360U 65034B   23048.18353989 -.00000034  00000-0  00000-0 0  9999
2 01360  32.2067   2.6977 3963283  64.1942 331.1945  4.64820075981306
0 LCS 1
1 01361U 65034C   23048.49558014 -.00000004  00000-0 -15812-2 0  9997
2 01361  32.1370 183.4817 0010071  26.7666 333.3350  9.89302867 89495
0 OPS 4682 DEB
1  1389U 65027D   23048.82579499  .00001499  00000-0  41331-2 0  9998
2  1389  89.7913 238.9599 0026916 197.2151 174.4546 13.12429143751515
0 SL-8 DEB
1 01392U 65020AH  23048.37604629  .00015234  00000-0  18481-2 0  9991
2 01392  55.8796  79.5819 0330109  71.6095 292.0500 14.51959366916126
0 OPS 4682 DEB
1  1399U 65027E   23047.59106124  .00000344  00000-0  11329-2 0  9995
2  1399  90.2573 356.2300 0006949 274.4873  85.5455 12.99069555404913
0 OPS 8480 (TRANSIT 5B-6)
1 01420U 65048A   23048.46065273  .00000218  00000-0  31591-3 0  9993
2 01420  89.9068 299.8430 0073941 355.7376 177.5860 13.51500750839218
0 THOR ABLESTAR DEB
1 01425U 65048C   23048.45558279  .00000064  00000-0  84727-4 0  9999
2 01425  89.9043 298.6815 0075058 130.8201  41.8000 13.48817617836530
0 THOR ABLESTAR R/B
1  1428U 65048B   23048.76151753  .00000077  00000-0  99674-4 0  9993
2  1428  89.9033 299.0071 0058601 107.4567 318.7878 13.52555994844812
0 TIROS 10
1 01430U 65051A   23048.57338590  .00000594  00000-0  19647-3 0  9990
2 01430  98.3908 166.2014 0057158 130.4229 230.1966 14.40508825 20831
0 DELTA 1 R/B
1 01433U 65051B   23048.57387457  .00002419  00000-0  53475-3 0  9994
2 01433  98.4294 161.5578 0043288  75.8612 284.7391 14.57625789 17428
0 THOR ABLESTAR DEB
1  1435U 65048D   23048.63711854  .00001206  00000-0  13252-2 0  9992
2  1435  89.9144 303.4711 0064567   4.3246  23.4627 13.70774937860765
0 OPS 6577 (VELA 5)
1 01458U 65058A   23051.95486408 -.00001107  00000-0  00000-0 0  9997
2 01458  21.3588  17.4495 4908811 279.4943   0.3547  0.21355550  9471
0 OPS 6564 (VELA 6)
1 01459U 65058B   23037.42752789 -.00000606  00000-0  00000-0 0  9995
2 01459  40.0039  28.3972 4530256  37.4732   0.8277  0.21464138  6637
0 SL-8 DEB
1 01477U 65020BB  23048.09806567  .00001447  00000-0  24283-2 0  9997
2 01477  55.4918 313.3271 0586695 168.7205 192.7552 12.97140365720256
0 SL-8 DEB
1 01478U 65020BC  23048.32464127  .00007476  00000-0  36289-2 0  9993
2 01478  56.0875 351.0002 0631321  58.5060 307.6008 13.46883803760487
0 SL-8 DEB
1 01479U 65020BD  23048.48055833  .00000049  00000-0  29357-3 0  9999
2 01479  56.0317  77.6048 0750830 175.2057 185.6593 12.59104289643198
0 SL-8 DEB
1 01480U 65020BE  23048.41431162  .00001873  00000-0  26393-2 0  9999
2 01480  56.0712 149.0175 0847059 180.1295 179.9525 12.63003074656429
0 SCOUT B R/B
1 01502U 65063B   23048.43066969  .00000039  00000-0  49527-3 0  9990
2 01502  69.2327 291.8656 0780306  56.7493 106.8711 11.78568755475131
0 THOR ABLESTAR DEB
1 01504U 65065A   23048.29730479  .00000343  00000-0  60665-3 0  9996
2 01504  89.8895 250.2385 0068449  72.8488 101.4389 13.39708973804864
0 SECOR 5 (EGRS 5)
1 01506U 65063A   23048.39074723  .00000020  00000-0  36084-3 0  9990
2 01506  69.2333 286.4914 0782777  48.5501 116.4472 11.78657780474971
0 THOR ABLESTAR R/B
1 01508U 65065B   23048.26883903  .00000057  00000-0  94643-4 0  9994
2 01508  90.1688 289.4793 0042524 159.3963 319.3784 13.35995081803058
0 DODECAPOLE 2
1 01510U 65065C   23048.53763711  .00005642  00000-0  39510-2 0  9996
2 01510  90.0395  18.1974 0043155  73.2677 287.3230 13.97803474862530
0 THOR ABLESTAR DEB
1 01511U 65065D   23048.45164299  .00000095  00000-0  17091-3 0  9992
2 01511  89.9257 215.6019 0069773  25.9777  26.8476 13.34038216798584
0 TEMPSAT 1
1 01512U 65065E   23048.45738189  .00000077  00000-0  13387-3 0  9992
2 01512  89.9241 216.7756 0071538  63.2920 350.9226 13.33469361798026
